Latitude,Longitude,Public_Private,Region,Prefecture,Name,Affiliation,Training_1,Training_2,Training_3,Training_4,Training_5,DailyActivity_Low,DailyActivity_High,Phone,Fax,Computer,Internet,TDR_Palu,TDR_HIV,Widal,Hb_Sahli,List of all exams,Training,Hierarchy
,,public,boke,kamsar,,ssa,,,,,,,,,,,,,,,,,"nan,nan,nan,nan,nan",
10.177999999999999,-14.030999999999999,public,boke,boffa,hp labs boffa,hp,biochemistry,bacteriology,hematology,parasitology,serology,10.0,10.0,0,0,0,0,1,1,1,1,"Urinalysis; frotis vaginal; BK; CSF; semen analysis; pregnancy test; GLUCOSE; albuminerie; glucourie; GE; microfilaria; stool HB, TE; NFS blood grouping; hematocrit; BW; Widal; Aslo, hepatitis B and C","biochemistry,bacteriology,hematology,parasitology,serology",Guinea.boke.boffa.hp_labs_boffa
10.370727,-13.584125,public,boke,fria,cs lab sabende,cs,bacteriology,serology,sample transport,hematology,parasitology,15.0,20.0,0,0,0,0,1,1,1,1,TDR / Palu; Widal; glucose; Aslo; BW; HBsAg; HIV; Hb (sally); urinary sediment; stools,"bacteriology,serology,sample transport,hematology,parasitology",Guinea.boke.fria.cs_lab_sabende
10.370727,-13.584125,public,boke,fria,biomedical lab and blood transfusion fria,hp,bacteriology,biochemistry,immunology,hematology,parasitology,6.0,,0,0,1,0,1,1,1,1,"Hb; NFS; VS; TC; TS Saddles GE; Search microfilariae; TE; sputum, vaginal secretions, urine cultures; Glucose; creatinine urea; transaminase; cholesterol HIV RPR; Aslo; Widal; HBsAg; CD4; blood grouping","bacteriology,biochemistry,immunology,hematology,parasitology",Guinea.boke.fria.biomedical_lab_and_blood_transfusion_fria
10.665213,-14.603128,mining company,boke,boke,laboratory hospital anaim kamsar,hospital,hematology,biochemistry,bacteriology (antimicrobial),sero-immunology,molecular biology,70.0,100.0,0,0,1,0,0,1,1,0,"Urea glucose: uric acid, creatinine, cholesterol and fractions; calcium; alkaline phosphatase, acid phosphatase, transaminases, bilirubin, total protein, albumin, blood typing; thick film; microfilaria; stools chemistry urine; LCR ANTIBIOGRAM; Hepatitis b and c; PSA; troponin; A1C; BLOOD COUNT cmplet; Hemostasis; stools; drop thick; Widal; ASLO; syphilis; Toxoplasmosis; RUBEOL; .crp; biochemistry of hormones; Spermogram","hematology,biochemistry,bacteriology (antimicrobial),sero-immunology,molecular biology",Guinea.boke.boke.laboratory_hospital_anaim_kamsar
10.66526,-14586066.0,public,boke,boke,cs lab kassapo,cs,biochemistry,hematology,bacteriology,lab management,sample,10.0,15.0,0,0,0,0,1,1,1,1,"Widal, HIV TDR, TDR Palu, hemoglobin, erythrocyte sedimentation rate, blood glucose, aslo, RPR, proteinuria, emmel test","biochemistry,hematology,bacteriology,lab management,sample",Guinea.boke.boke.cs_lab_kassapo
10.934619,-14.291773000000001,public,boke,boke,cs lab dibia,cs,sample,hiv screening,hematology,bacteriology,biochemistry,,,0,0,0,0,1,1,1,1,"TDR malaria and HIV, Hb; stool microscopy, TE, Widal, RPR, microscopic examination of vaginal secretions, urine sediment, Aslo, Blood Glucose, Pregnancy Test, Albumin","sample,hiv screening,hematology,bacteriology,biochemistry",Guinea.boke.boke.cs_lab_dibia
10.94,-14.29,public,boke,boke,hr boke lab,hr,biochemistry,parasitology,blood transfusion,bacteriology,hematology,35.0,40.0,0,0,1,0,1,1,1,1,"Hb, NFS, Tc Ts, TE, blood Goupage, GE, stool microscopy, microfilaria search, albumin, Aslo, Toxoplasmosis, RPR, Vidal, TDR HbS, urinary sediment, vaginal smears, CSF","biochemistry,parasitology,blood transfusion,bacteriology,hematology",Guinea.boke.boke.hr_boke_lab
11.76368,-13.200053,public,boke,gaoual,hp labs gaoual,hp,blood transfusion,biosecurity,serology,bacteriology,hematology,10.0,15.0,0,0,0,0,0,1,1,1,"Stool microfilaria research thick Drop, HB, NFS, VS, TE, TC, TS, glucose, urine sediment, pregnancy test, HIV TDR, TDR hepatitis B, RPR, Widal","blood transfusion,biosecurity,serology,bacteriology,hematology",Guinea.boke.gaoual.hp_labs_gaoual
12.403208,-13.5283,public,boke,koundara,cs lab saraboido,cs,serology,hematology,biochemistry,bacteriology,parasitology,8.0,10.0,0,0,0,0,1,1,0,1,"HIV, Glucose, Hb, albumin in the urine, stool examination (if microscope works)","serology,hematology,biochemistry,bacteriology,parasitology",Guinea.boke.koundara.cs_lab_saraboido
12.491184,-13.295664000000002,public,boke,koundara,hp labs koundara,hp,bacteriology,biochemistry,hematology,parasitology,serology,,,0,0,0,0,1,1,1,1,"NFS, urinalysis, biochemistry urine, sputum, stool microscopy, glucose, Aslo, Widal, TDR HIV, pregnancy test, LCR, GE, semen analysis, vaginal smear","bacteriology,biochemistry,hematology,parasitology,serology",Guinea.boke.koundara.hp_labs_koundara
,,mining company,boke,fria,laboratory hospital rusal fria,hospital,bacteriology,biochemistry,hematology,parasitology,serology,25.0,30.0,1,0,1,0,0,1,1,0,"Urea glucose: uric acid, creatinine, cholesterol and fractions; calcium; alkaline phosphatase, acid phosphatase, transaminases, bilirubin, total protein, albumin, blood typing; thick film; microfilaria; stools chemistry urine; LCR ANTIBIOGRAM; Hepatitis B and C; hemoculture; Hemostasis; electrophoresis lhemoglobine; complete electrolytes, serum iron, Gamma GT, cytological analysis of breast milk","bacteriology,biochemistry,hematology,parasitology,serology",Guinea.boke.fria.laboratory_hospital_rusal_fria
,,mining company,boke,boke,laboratory clinic cbg sangaredi,dispensary,hematology,bacilloscopy tuberculosis,bacteriology (antimicrobial),sero-immunology,biochemistry,20.0,25.0,1,0,1,0,0,1,1,0,"Glucose; urea: uric acid, creatinine, cholesterol and fractions; calcium; alkaline phosphatase, acid phosphatase, transaminases, bilirubin, total protein, albumin, blood typing; thick film; microfilaria; stools chemistry urine; LCR ANTIBIOGRAM; Hepatitis B and C Widal; ASLO; HIV; paludienne Serology; amylase; chemistry panel; NFS with constant erythrocyte","hematology,bacilloscopy tuberculosis,bacteriology (antimicrobial),sero-immunology,biochemistry",Guinea.boke.boke.laboratory_clinic_cbg_sangaredi
,,private,boke,fria,clinical lab hafia djama,clinical,biochemistry,,,,,0.0,1.0,0,0,0,0,0,0,0,1,,"biochemistry,nan,nan,nan,nan",Guinea.boke.fria.clinical_lab_hafia_djama
,,public,boke,boke,laboratory bab boke,ssa,serology,parasitology,biochemistry,blood transfusion,hematology,0.0,0.0,0,0,0,0,0,0,0,0,N / A,"serology,parasitology,biochemistry,blood transfusion,hematology",Guinea.boke.boke.laboratory_bab_boke
,,public,boke,fria,,ssa,,,,,,,,,,,,,,,,,"nan,nan,nan,nan,nan",
9.517203,-13.70183,public,conakry,kaloum commune,cmc lab bk,cmc,biochemistry,hematology,parasitology,bacteriology,immuno-serology,10.0,10.0,0,0,0,0,0,1,1,0,"Complete blood count, Hematocrit, Hemoglobin, GR, GB, Platelet, TC, TS, blood grouping and Rh, thick Drop Test Emmel, erythrocyte sedimentation rate, Glucose, creatinine, bilirubin, transaminase, ASO, RPR, TPHA, Widal, HIV Saddles","biochemistry,hematology,parasitology,bacteriology,immuno-serology",Guinea.conakry.kaloum_commune.cmc_lab_bk
9.535035,-13.678447,public,conakry,matam,coleah cmc labo,cmc,lab management,bacteriology,hematology,biochemistry,immunology,30.0,30.0,0,0,0,0,1,1,1,1,"GE, NFS, Widal, Aslo, RPR, urinary sediment, albumin in the urine, glucose, TE, stool microscopy, TC TS","lab management,bacteriology,hematology,biochemistry,immunology",Guinea.conakry.matam.coleah_cmc_labo
9.540061999999999,-13.665320000000001,public,conakry,commune of matam,cs lab madina,cs,hematology,parasitology,blood biochemistry,ear,maintenance,30.0,40.0,0,0,0,0,0,0,1,1,"Saddles, THb, thick Drop, TE, D, albumin, sugar, NFS, Urinalysis, Blood Grouping, Widal","hematology,parasitology,blood biochemistry,ear,maintenance",Guinea.conakry.commune_of_matam.cs_lab_madina
9.552736,-13.651226999999999,public,conakry,commune of matam,cmc lab matam,cmc,blood parasitology,biochemistry,hematology,bacteriology,,10.0,15.0,0,0,0,0,1,1,1,1,"THb, Emmel test, sedimentation rate, red blood cells and white, BELONGING time, coagulation time, blood glucose, Widal, ASO, TDR (malaria), HIV, RPR, HBsAg, Blood Biochemistry, Biochemistry of urine, vaginal frotis , pregnancy Test, blood Grouping, Saddles","blood parasitology,biochemistry,hematology,bacteriology,None",Guinea.conakry.commune_of_matam.cmc_lab_matam
9.583688,-13.658206,public,conakry,ratoma,cmc lab ratoma,cmc,hematology,biochemistry,serology,,,,,0,0,0,0,,,,,,"hematology,biochemistry,serology,nan,nan",Guinea.conakry.ratoma.cmc_lab_ratoma
9.615463,-13.613814999999999,public,conakry,ratoma,cs lab simbaya station,cs,hematology,parasitology,biochemistry,serology,bacteriology,10.0,15.0,0,0,0,0,1,1,1,1,"Hb, TDR malaria and HIV, to emmel test, stool examination, albumin in the urine","hematology,parasitology,biochemistry,serology,bacteriology",Guinea.conakry.ratoma.cs_lab_simbaya_station
,,public,conakry,ratoma,blazing cmc labo,cmc,blood transfusion,bacteriology,biochemistry,hematology,serology,8.0,8.0,0,0,0,0,1,1,1,0,"GE Widal, Stool, NFS, Glucose, Aslo, Hepatitis B, RPR, urea, creatinine, transaminase, uric acid, cholesterol and fractions biluribinï¿½mie, urinary sediment, urine dipstick Blood Grouping, HIV, serum calcium","blood transfusion,bacteriology,biochemistry,hematology,serology",Guinea.conakry.ratoma.blazing_cmc_labo
,,public,conakry,ratoma,mining cmc labo,cmc,parasitology,biochemistry,bacteriology,immunology,serology,15.0,20.0,0,0,0,0,1,1,1,1,"stool microscopy, GE, HB, TE, blood typing, NFS, VS, albumin, RPR TPHA, glucose, Aslo, CRP (?), rheumatoid factor (?), Widal, hematocrit, HIV, TC TS, biopsy cutatanï¿½e ( ?), urinary sediment, urine dipstick, pap smears, pregnancy tests, CD4, TDR HbS","parasitology,biochemistry,bacteriology,immunology,serology",Guinea.conakry.ratoma.mining_cmc_labo
,,mining company,conakry,ratoma,laboratory clinic cbk rusal,dispensary,biochemistry,hematology,bacteriology (antimicrobial),serology,parasitology,15.0,15.0,0,0,0,0,0,1,1,0,"NFS; GE; stools ECBU; Widal; Aslo; HBS; TPHA; HCV; dipstick; Blood Grouping; parasitology urine; transaminase, urea, creatinine, blood glucose levels and cholesterol fractions; uric acid; bilirubin; magnesium; calcium; complete electrolytes, alkaline phosphatase","biochemistry,hematology,bacteriology (antimicrobial),serology,parasitology",Guinea.conakry.ratoma.laboratory_clinic_cbk_rusal
8.88648,-10.170802,public,faranah,kissidougou,cs lab yendë,cs,hematology,bacteriology,parasitology,biosecurity,,5.0,10.0,0,0,0,0,1,0,1,1,"TDR THb, Widal, AFB, RPR, stools, urine","hematology,bacteriology,parasitology,biosecurity,None",Guinea.faranah.kissidougou.cs_lab_yendë
9.197805,-10.104365,public,faranah,kissidougou,hp labs kissidougou,hp,lab management,biochemistry,hematology,bacteriology,serology,30.0,30.0,0,0,1,0,0,1,1,1,"Saddles, GE, NFS, Albumin, Glucose, urinalysis, blood glucose, RPR / TPHA, ASO, CRP, Toxo Plasmose, HBsAg, Hepatitis C, Creatinine, Urea Blood Transaminases, cholesterol, uric acid, TE, Widal, VS, Bulking blood, pregnancy Test, Rivalta, HIV, FCV, Semen, Spit, Calcium","lab management,biochemistry,hematology,bacteriology,serology",Guinea.faranah.kissidougou.hp_labs_kissidougou
10.041437,-10.739678,public,faranah,faranah,hr faranah lab,hr,lab management,quality assurance,biochemistry,bacteriology,immunology,20.0,20.0,0,0,0,0,1,1,1,1,"stools; TDR; Hb; urinalysis; Albumin; glucose; urea; Transaminase; creatinine; Aslo; Widal; RPR; TE; NFS; VS; HBsAg, HBcAg; Skin biopsy; HIV; Blood Grouping; serum calcium, uric acid","lab management,quality assurance,biochemistry,bacteriology,immunology",Guinea.faranah.faranah.hr_faranah_lab
10.043083,-10.74033,public,faranah,faranah,csu lab abattoir,cs,bacteriology,parasitology,biochemistry,hematology,serology,20.0,20.0,0,0,0,0,1,1,1,1,"stool Hb; Widal; RPR; Blood Grouping TE; Albuminerie; TDR, urinary sediment","bacteriology,parasitology,biochemistry,hematology,serology",Guinea.faranah.faranah.csu_lab_abattoir
10.731488,-11.060955,public,faranah,dabola,hp labs dabola,hp,lab management,biochemistry,hematology,immunology,biosecurity,10.0,10.0,0,0,0,0,0,1,1,1,stools; skin biopsy; Parasitology urine; GE; Hb; NFS TE; VS; TC / TS Glucose; chemistry urine; Pregnancy Test; Rivalta; HIV; Widal; RPR; HBsAg; AcHcv; Aslo; blood typing; urinalysis; the ECB PUS; CSF; Pap Smear,"lab management,biochemistry,hematology,immunology,biosecurity",Guinea.faranah.dabola.hp_labs_dabola
10.744802,-11.108103,public,faranah,dabola,cs lab dabola,cs,infection,hematology,bacteriology,immunology,parasitology,50.0,50.0,0,0,0,0,1,1,1,1,stools; GE; TDR; Hb; RPR; Widal; urinalysis; NFS; TE; Glucose,"infection,hematology,bacteriology,immunology,parasitology",Guinea.faranah.dabola.cs_lab_dabola
11.290165,-10.718772999999999,public,faranah,dinguiraye,hp labs dinguiraye,hp,biochemistry,hematology,bacteriology,parasitology,virology,20.0,20.0,0,0,0,0,1,1,1,1,"stools; albumin; Urinalysis, pregnancy test transaminase; Hb, glucose; RPR; NFS; Creatinine; sedimentation rate; TE; urea; ASLO; Widal; CRL HIV sputum, blood grouping; spermogram; serum calcium; vaginal secretions; skin biopsy; TC / TS","biochemistry,hematology,bacteriology,parasitology,virology",Guinea.faranah.dinguiraye.hp_labs_dinguiraye
11.744532000000001,-10.045235,mining company,faranah,dinguiraye,clinical laboratory fayala of lero,dispensary,biochemistry,hematology,parasitology,serology,bacteriology,10.0,15.0,0,0,1,0,0,1,1,0,"Hb, NFS, vs; TE, blood sugar; albumin; Aslo; Widal; CRP; creatinine; urea; transaminases; bilirubin; Uric acid; calcium; urinalysis; amylase, alkaline phosphatase; HIV; BW","biochemistry,hematology,parasitology,serology,bacteriology",Guinea.faranah.dinguiraye.clinical_laboratory_fayala_of_lero
,,public,faranah,kissidougou,cs lab heremakono,cs,bacteriology-virology,biochemistry,hematology,serology,parasitology,50.0,50.0,0,0,0,0,1,0,1,1,"TDR THb, Albumin, Saddles, Widal, RPR, TE, glucose (glucose meter), Blood Grouping and Rhesus factor, Pap Smear, ASLO","bacteriology-virology,biochemistry,hematology,serology,parasitology",Guinea.faranah.kissidougou.cs_lab_heremakono
,,public,findia,forecayah,medical biology laboratory medical battalion infantry forecayah,ssa,biochemistry,serology,bacteriology,hematology,parasitology,0.0,2.0,0,0,0,0,,,,,"SDW, GE / DP, KOP","biochemistry,serology,bacteriology,hematology,parasitology",Guinea.findia.forecayah.medical_biology_laboratory_medical_battalion_infantry_forecayah
9.277698,-9.001033,public,kankan,kerouane,hp labs kerouane,hp,bacteriology (antimicrobial),biochemistry,hematology,serology,parasitology,15.0,15.0,0,0,0,0,1,1,1,1,stools; urinalysis; Albumin; Glucosuria; HCG; NFS; TE; GE; TC-TS; Hb; Blood Grouping; TDR RPR; Aslo; Widal; LCR; Coughing; SRV; Semen; Blood Transfusion,"bacteriology (antimicrobial),biochemistry,hematology,serology,parasitology",Guinea.kankan.kerouane.hp_labs_kerouane
10.379155,-9.293378,public,kankan,kankan,cs lab salamani,cs,immunology,blood transfusion,bacteriology,serology,hematology,20.0,30.0,0,0,0,0,1,1,1,1,"Albumin, sugar, urinalysis, THb, thick Drop, TE, ASO, VS, TC, TS, RPR, Widal, HIV, Hepatitis B, TDR, skin biopsy, NFS, Vaginal frotis, Spermogram","immunology,blood transfusion,bacteriology,serology,hematology",Guinea.kankan.kankan.cs_lab_salamani
10.620208,-8.696904,public,kankan,mandiana,hp labs mandiana,hp,biochemistry,bacteriology,hematology,immunology,serology,10.0,15.0,0,0,0,0,0,1,1,1,"stool Hb; blood smear; Widal; RPR, vaginal smear; Urinalysis, TE, pregnancy test; Glucose; blood grouping; TC - TS Skin biopsy","biochemistry,bacteriology,hematology,immunology,serology",Guinea.kankan.mandiana.hp_labs_mandiana
10.632357,-8.696297,public,kankan,mandiana,csu lab mandiana,cs,bacteriology,serology,hematology,biochemistry,virology,20.0,20.0,0,0,0,0,1,1,1,1,"Hb; TDR, RPR, Widal;. Stool; albumin; glucose; microfilariae research; HBsAg: SRV, blood typing, pregnancy test, sputum (AFB) TE; NFS rivalta; research BH; semen analysis","bacteriology,serology,hematology,biochemistry,virology",Guinea.kankan.mandiana.csu_lab_mandiana
10.648603,-9.881663,public,kankan,kouroussa,cs lab kouroussa,cs,sample collection,blood transfusion,bacteriology,parasitology,hematology,12.0,13.0,0,0,0,0,1,1,1,1,"THb, Albumin, saddles, Widal, RPR, TE, thick Drop, NFS, TDR, HIV","sample collection,blood transfusion,bacteriology,parasitology,hematology",Guinea.kankan.kouroussa.cs_lab_kouroussa
10.649507,-9.872592,public,kankan,kouroussa,hp labs kouroussa,hp,hematology,serology,bacteriology,biochemistry,parasitology,15.0,15.0,0,0,0,0,1,1,1,1,stools; urinalysis; Albumin; Glucosuria; NFS; TE; GE; TC-TS; Hb; Blood Grouping; TDR RPR; Aslo; Widal; LCR; Coughing; SRV; Blood Transfusion,"hematology,serology,bacteriology,biochemistry,parasitology",Guinea.kankan.kouroussa.hp_labs_kouroussa
10.662315,-9.248725,public,kankan,kankan,cs bate nafadji lab,cs,parasitology,hematology,,,,10.0,20.0,0,0,0,0,1,0,1,1,"TDR Widal, SRV, RPR, THb","parasitology,hematology,None,None,None",Guinea.kankan.kankan.cs_bate_nafadji_lab
11.420392,-9.167615,public,kankan,siguiri,hp siguiri laboratory,hp,biochemistry,immunology,hematology,bacteriology,parasitology,50.0,50.0,0,0,0,0,0,1,1,1,"AFB, Leukocytes, Glucose, Bilirubin, THb, thick Drop, glucose, blood typing, TS, TC, Syphilis, Hepatitis B, Hepatitis C, NFS, TE, ","biochemistry,immunology,hematology,bacteriology,parasitology",Guinea.kankan.siguiri.hp_siguiri_laboratory
11.548969999999999,-9.309894,mining company,kankan,siguiri,hospital laboratory sag siguiri,hospital,immunology,parasitology,biochemistry,hematology,molecular biology,25.0,30.0,1,0,1,1,0,1,1,0,"complete blood count; Reticulocytes; VS; TE; INR, prothrombin, for malaria, blood grouping; glycated Hemoglobin; CRP, CD4 count, viral load; albumin, alkaline phosphatase, amylase, uric acid, bilirubin; calcium; creatinine phosphokinase (CPK), total cholesterol; (Na K Cl); fructosamine; GOT / AST, GPT; / ALT, GGT, glucose, HDL; LDH; Magnesium; inorganic phosphate; Triglycerides; urea; HIV, hepatitis B and C; BW; Widal; Aslo; PCR (DNA research or viral RNA)","immunology,parasitology,biochemistry,hematology,molecular biology",Guinea.kankan.siguiri.hospital_laboratory_sag_siguiri
11.785252,-8.969847999999999,public,kankan,siguiri,cs lab doko,cs,bacteriology,biochemistry,serology,parasitology,hematology,10.0,10.0,0,0,0,0,0,0,1,1,"thick film, THb, Widal, BW, blood grouping and Rh factor, urinary strip, Albumin","bacteriology,biochemistry,serology,parasitology,hematology",Guinea.kankan.siguiri.cs_lab_doko
,,public,kankan,kankan,hr kankan lab,hr,biochemistry,hematology,biosecurity,quality control,bacteriology,50.0,60.0,0,0,1,0,0,1,0,0,"NFS, THb, TE, thick Drop, glucose, blood typing, TS, TC, urea, cholesterol, creatinine, transaminases","biochemistry,hematology,biosecurity,quality control,bacteriology",Guinea.kankan.kankan.hr_kankan_lab
,,private,kankan,siguiri,analysis lab biomedical friendship,laboratory,antibiogramme,serology,bacteriology,hematology,parasitology,15.0,20.0,0,0,0,0,1,1,1,1,,"antibiogramme,serology,bacteriology,hematology,parasitology",Guinea.kankan.siguiri.analysis_lab_biomedical_friendship
,,public,kankan,faranah,labassa baf,ssa,recycling laboratory,,,,,3.0,3.0,0,0,0,0,1,1,1,0,"Drop thick, Widal HIV stools","recycling laboratory,nan,nan,nan,nan",Guinea.kankan.faranah.labassa_baf
,,public,kankan,kankan,lapissa 3iem rm kankan,ssa,biochemistry,biosecurity,parasitology,hematology,bacteriology,10.0,15.0,0,0,0,0,,,,,,"biochemistry,biosecurity,parasitology,hematology,bacteriology",Guinea.kankan.kankan.lapissa_3iem_rm_kankan
,,public,kankan,siguiri,lapassa siguiri,ssa,,,,,,,,,,,,,,,,,"nan,nan,nan,nan,nan",Guinea.kankan.siguiri.lapassa_siguiri
9.43149,-13.090247,public,kindia,forekaria,csu lab forekaria,cs,hematology,bacteriology,biochemistry,serology,parasitology,10.0,12.0,0,0,0,0,1,1,0,0,TDR HIV,"hematology,bacteriology,biochemistry,serology,parasitology",Guinea.kindia.forekaria.csu_lab_forekaria
9.431525,-13.090437,public,kindia,forekaria,hp labs forekaria,hp,hematology,parasitology,biochemistry,bacteriology,blood transfusion,6.0,8.0,0,0,0,0,1,1,1,1,"NFS, GE, THb, Parasitology stool and urine, Widal, BW or PRP, blood transfusion, blood biochemistry, Biochemistry urine, glucose, HBsAg, Hepatitis C, HIV, vaginal secretion, urine culture, TDR (malaria)","hematology,parasitology,biochemistry,bacteriology,blood transfusion",Guinea.kindia.forekaria.hp_labs_forekaria
9.547704,-13.285882,public,kindia,forekariah,cs lab maferinyah,cs,biochemistry,serology,sample packaging,hematology,sample,5.0,10.0,0,0,0,0,1,1,0,1,"Saddles, THb, thick Drop, SRV, White Blood Cell, Grouping, Spit, VS, Pregnancy Test, TDR, NFS","biochemistry,serology,sample packaging,hematology,sample",Guinea.kindia.forekariah.cs_lab_maferinyah
9.704025,-13.498397,public,kindia,coyah,labo health computer sanoyah,cs,biochemistry,laboratory techniques,hematology,bacteriology,serology,15.0,20.0,0,0,0,0,1,1,1,1,"TDR THb, albumin, glucose, Saddles, SRV, Widal, RPR","biochemistry,laboratory techniques,hematology,bacteriology,serology",Guinea.kindia.coyah.labo_health_computer_sanoyah
9.706859,-13.392595000000002,public,kindia,coyah,hp labs coyah,hp,bacteriology,biochemistry,hematology,immunology,lab management,25.0,25.0,0,0,0,0,1,1,1,0,"Urinalysis (urine sediment), NFS, THb, VS, TE, TS, TC, thick Drop TDR Coprology, Glucose, Sï¿½ro immunology, Widal, RPR, ASO, HBsAg, HIV ","bacteriology,biochemistry,hematology,immunology,lab management",Guinea.kindia.coyah.hp_labs_coyah
9.710669000000001,-13.379326,public,kindia,coyah,cs lab fily,cs,hematology,parasitology,biosecurity,bacteriology,serology,20.0,20.0,0,0,0,0,0,1,1,1,"thick film, THb, GB, NFS, Widal, Glucose, seats, HIV","hematology,parasitology,biosecurity,bacteriology,serology",Guinea.kindia.coyah.cs_lab_fily
9.719385,-13.411198,public,kindia,coyah,cs lab maneah,cs,biosecurity,serology,parasitology,bacteriology,hematology,15.0,20.0,0,0,0,0,1,1,1,1,"TDR, THb, Thick blood, stools, Widal, albumin, HIV","biosecurity,serology,parasitology,bacteriology,hematology",Guinea.kindia.coyah.cs_lab_maneah
9.79,-13.53,public,kindia,dubreka,csu lab dubreka,cs,parasitology,ebola,biosecurity,bacteriology,hematology,2.0,3.0,0,0,0,0,0,0,1,0,"blood grouping, Albumin, Widal, glucose, thick Drop, Saddles","parasitology,ebola,biosecurity,bacteriology,hematology",Guinea.kindia.dubreka.csu_lab_dubreka
9.790622,-13.526892000000002,public,kindia,dubreka,hp labs dubreka,hp,blood biochemistry,hematology,bacteriology,serology,immunology,15.0,20.0,0,0,0,0,1,0,1,1,"THb, Red Cells, White Blood Cell, Test Emmel, VS, TS, TC, glucose, Saddles, TDR (malaria), thick Drop, TDR (trypanosomiasis), Widal, RPR, HBsAg, ASO, Blood Grouping","blood biochemistry,hematology,bacteriology,serology,immunology",Guinea.kindia.dubreka.hp_labs_dubreka
9.83,-13.11,public,kindia,kindia,cs lab mambia,cs,parasitology,bacteriology,hematology,serology,biosecurity,1.0,2.0,0,0,0,0,,,,,,"parasitology,bacteriology,hematology,serology,biosecurity",Guinea.kindia.kindia.cs_lab_mambia
10.047,-12.86,public,kindia,kindia,cs lab manquepas,cs,hematology,biochemistry,bacteriology,serology,parasitology,10.0,15.0,0,0,0,0,1,1,1,1,"Thick film, THb, Widal, Saddle, Glucose, TDR, albumin, HIV, RPR, HCG","hematology,biochemistry,bacteriology,serology,parasitology",Guinea.kindia.kindia.cs_lab_manquepas
10.047297,-12.860032,public,kindia,kindia,lab hr kindia,hr,biochemistry,serology,hematology,bacteriology,parasitology,50.0,50.0,0,0,0,0,1,1,1,0,"Biochemistry of urine, THb, red and White Blood Cell, Goute thick, TS, TC, Saddles, Emel Test, Grouping, Syphilis, ASO, Widal, HIV Toxo plasmose","biochemistry,serology,hematology,bacteriology,parasitology",Guinea.kindia.kindia.lab_hr_kindia
10.69924,-12.9755,public,kindia,telimele,cs lab sinta,cs,parasitology,bacteriology,hematology,biochemistry,serology,3.0,4.0,0,0,0,0,0,1,1,1,"THb, thick Drop, Widal, Saddle, sputum, urine chemistry, pregnancy test, HIV, Cytology urine","parasitology,bacteriology,hematology,biochemistry,serology",Guinea.kindia.telimele.cs_lab_sinta
10.906827,-13.08431,public,kindia,telimele,hp labs telimele,hp,hematology,biochemistry,bacteriology,parasitology,blood transfusion,5.0,6.0,0,0,0,0,0,1,0,0,"NFS, TE, TC, TS, Grouping, Glucose, Albumin, Sugar, urinalysis, parasitology stool, GE, skin Bioptie, syphilis, ASO, HIV","hematology,biochemistry,bacteriology,parasitology,blood transfusion",Guinea.kindia.telimele.hp_labs_telimele
10.907373,-13027515.0,public,kindia,telimele,csu lab telimele,cs,serology,biosecurity,parasitology,bacteriology,hematology,8.0,10.0,0,0,0,0,1,1,1,1,"thick blood, THb, Widal, urine chemistry, sputum, HIV, HBS Antigen, TG, Saddles, TDR","serology,biosecurity,parasitology,bacteriology,hematology",Guinea.kindia.telimele.csu_lab_telimele
,,mining company,kindia,kindia,clinic lab cbk debele,clinical,biochemistry,parasitology,bacteriology,,,6.0,7.0,1,1,1,1,0,1,0,0,"NFS, VS, GE, Aslo, Saddle, Urine, blood sugar, HIV, GA, GS, Hepatitis B, TE","biochemistry,parasitology,bacteriology,nan,nan",Guinea.kindia.kindia.clinic_lab_cbk_debele
,,public,kindia,coyah,,ssa,,,,,,,,,,,,,,,,,"nan,nan,nan,nan,nan",
,,public,kindia,kindia,lapissa main laboratory military health service,ssa,hematology,bacteriology,biosecurity,,,5.0,5.0,0,0,0,0,,,,,,"hematology,bacteriology,biosecurity,nan,nan",Guinea.kindia.kindia.lapissa_main_laboratory_military_health_service
11.318402,-12285279.0,public,labe,labe center,hr lab labe,hr,bacteriology (antimicrobial),hematology,serology,biochemistry,parasitology,8.0,10.0,0,0,1,0,0,1,1,1,"Aslo, blood typing, RPR / TPHA, TDR HIV, Toxoplasmosis, TDR HbS, TDR hepatitis C Widal, Glucose,, Creatinine, Cholesterol total / LDL / HDL, Triglycerides, Transaminases, Urea blood, uric acid, calcium, magnesium levels, ECBU , ECBSV, ECB pus, GE (dp), TE, TS TC; NFS; HEMOGLOBIN; microfilaria; STOOL Transfusion STRIP URINARY","bacteriology (antimicrobial),hematology,serology,biochemistry,parasitology",Guinea.labe.labe_center.hr_lab_labe
11.320253999999998,-12.282071,public,labe,labe,cs-lab ley saare,cs,hematology,virology,parasitology,serology,biosecurity,,,0,0,0,0,1,1,0,1,"TDR, hemoglobin, albumin, PMCT (HIV), RPR","hematology,virology,parasitology,serology,biosecurity",Guinea.labe.labe.cs-lab_ley_saare
11.43,-12.11,public,labe,labe,cs lab daka,cs,parasitology,hematology,biochemistry,serology,bacteriology,2.0,4.0,0,0,0,0,1,0,1,1,"Hemoglobin, TDR, thick Drop RPR (syphilis), Albumin, seats, vaginal smear, urinary Fitting, Widal, urinary strip","parasitology,hematology,biochemistry,serology,bacteriology",Guinea.labe.labe.cs_lab_daka
11.430577,-12.683847,public,labe,lelouma,hp labs lelouma,hp,biochemistry,bacteriology,serology,hematology,parasitology,5.0,5.0,0,0,0,0,1,1,1,1,"Hemoglobin, blood typing, albumin, Widal, glucose, thick film, TDR HIV Aslo","biochemistry,bacteriology,serology,hematology,parasitology",Guinea.labe.lelouma.hp_labs_lelouma
11.431311,-12.683072,public,labe,lelouma,csu lab lelouma,cs,hematology,parasitology,bacilloscopy tuberculosis,bacteriology,serology,,,0,0,0,0,0,0,0,0,Examining only realized in this laboratory is examining sputum for TB screening,"hematology,parasitology,bacilloscopy tuberculosis,bacteriology,serology",Guinea.labe.lelouma.csu_lab_lelouma
11.439689,-11.663432,public,labe,tougue,hp labs tougue,hp,hematology,bacteriology,biochemistry,parasitology,serology,7.0,10.0,0,0,0,0,0,1,1,1,"Parasitology stool, hemoglobin, thick film, blood count, bleeding time, clotting time, sedimentation velocity of the red cells, Widal, RPR, TDR HIV Aslo, TDR HBsAg, Chemistry of urine, urine culture, HCG (pregnancy test ), Rivalta, TB, glucose ","hematology,bacteriology,biochemistry,parasitology,serology",Guinea.labe.tougue.hp_labs_tougue
11.579938,-12.46152,public,labe,lelouma,cs lab lafou,cs,,,,,,3.0,5.0,0,0,0,0,0,0,0,0,Sputum and stool,"nan,nan,nan,nan,nan",Guinea.labe.lelouma.cs_lab_lafou
11.588973,-11.897174,public,labe,koubia,hp labs koubia,hp,hematology,biochemistry,bacteriology,serology,parasitology,5.0,6.0,0,0,0,0,1,1,1,1,"Hemoglobin, TS, TC, TE, GE, HBs antigen, testing of large, Widal, ASO, TPHA, VS, stool and urine microscopy","hematology,biochemistry,bacteriology,serology,parasitology",Guinea.labe.koubia.hp_labs_koubia
11.815032,-12.350151,private,labe,mali,cs lab yimbèren,cs,bacilloscopy tuberculosis,malaria,hematology,serology,bacteriology,1.0,,0,0,0,0,0,1,1,1,"Complete Blood Count, Reviews of stools, Drop, hemoglobin, hemoglobin, Emmel test, BELONGING time, coagulation time, Widal, glucose, urinalysis, SRV, Albumin, BW (RPR), sputum examination ","bacilloscopy tuberculosis,malaria,hematology,serology,bacteriology",Guinea.labe.mali.cs_lab_yimbèren
12.068484,-12.293811,public,labe,mali,hp labs mali,hp,biochemistry,antibiogramme,immunology,bacteriology,virology,5.0,10.0,0,0,0,0,1,1,1,0,"Saddles, NFS, Haemostasis, VS, GE, Smear, TDR, TE, ASO, IL, TPHA, HIV, Grouping, glucose, liver tests, urinalysis, urine chemistry, ECB secretion, Bacteriology, ECB CSF chemistry CSF Coughing","biochemistry,antibiogramme,immunology,bacteriology,virology",Guinea.labe.mali.hp_labs_mali
,,public,labe,labe,laoratoire infirmary labe (lapissa),ssa,biochemistry,serology,parasitology,immunology,hematology,1.0,2.0,,,,,,,,,,"biochemistry,serology,parasitology,immunology,hematology",Guinea.labe.labe.laoratoire_infirmary_labe_(lapissa)
10.37594,-1208705.0,public,mamou,mamou,lab hr mamou,hr,biochemistry,bacteriology,immunology,hematology,parasitology,40.0,50.0,0,0,0,0,1,1,1,1,"Semen analysis, RPR TPHA, ASO, HBs, Pregnancy test, blood count, hematocrit, hemoglobin, Emmel, microscopy feces, urine strips, parasitology urine, blood sugar","biochemistry,bacteriology,immunology,hematology,parasitology",Guinea.mamou.mamou.lab_hr_mamou
10.387645,-12.074002,public,mamou,mamou,cs lab sabou,cs,hematology,serology,parasitology,bacteriology,immunology,5.0,10.0,0,0,0,0,1,1,1,0,"HIV TDR Saddles, glucose, Widal","hematology,serology,parasitology,bacteriology,immunology",Guinea.mamou.mamou.cs_lab_sabou
10.63919,-11.826093,public,mamou,mamou,cs lab timbo,cs,hematology,bacteriology,biochemistry,serology,parasitology,0.0,1.0,0,0,0,0,0,1,0,0,"SRV, TB, Albumin, Saddles","hematology,bacteriology,biochemistry,serology,parasitology",Guinea.mamou.mamou.cs_lab_timbo
10.691967,-12.249348,public,mamou,dalaba,hp labs dalaba,hp,biosecurity,biochemistry,bacteriology,serology,hematology,15.0,20.0,0,0,0,0,0,0,1,1,"NFS, urinary, vaginal Secretion Base, parasitological examination of stool, RPR / TPHA, ASO, Widal, Blood Grouping and rhesus factor, skin Bropsi (daytime), BELONGING time and clotting time, thick Drop, Blood Sugar ","biosecurity,biochemistry,bacteriology,serology,hematology",Guinea.mamou.dalaba.hp_labs_dalaba
10.692203,-12.251007000000001,public,mamou,dalaba,csu lab dalaba,cs,biochemistry,hematology,biosecurity,parasitology,serology,7.0,8.0,0,0,0,0,1,1,1,1,"Search Baccil resistant alkaloids (AFB), TDR, Drop Thick (rarely), Widal, Saddle, White Blood Cell (GB), TPHA, HIV, THb","biochemistry,hematology,biosecurity,parasitology,serology",Guinea.mamou.dalaba.csu_lab_dalaba
11.061615,-12.398185,public,mamou,pita,pita csu lab,cs,bacteriology,hematology,parasitology,serology,immunology,10.0,15.0,0,0,0,0,1,0,0,1,"TDR, hemoglobin, albumin, seats, thick Drop","bacteriology,hematology,parasitology,serology,immunology",Guinea.mamou.pita.pita_csu_lab
11.064208,-12.393764,public,mamou,pita,hp pita lab,hp,hematology,bacteriology,serology,blood biochemistry,immunology,20.0,25.0,0,0,0,0,0,1,1,0,"NFS Thick blood, erythrocyte sedimentation rate, Haemostasis, of emmel Test, HIV, ASO, IL, Widal, Socket urinary, vaginal secretions, blood sugar, urine strips, Blood Grouping, compatibility test, stool parasitology","hematology,bacteriology,serology,blood biochemistry,immunology",Guinea.mamou.pita.hp_pita_lab
11.202777000000001,-12.537828999999999,public,mamou,pita,cs lab timbi madina,cs,hematology,bacteriology,serology,parasitology,biochemistry,10.0,10.0,0,0,0,0,0,0,1,1,"Hemoglobin, Emmel test, thick drops, glucose, Saddles, albumin, sugar, urine biochemistry, Widal, RPR / TPHA, Blood Grouping, bHCG","hematology,bacteriology,serology,parasitology,biochemistry",Guinea.mamou.pita.cs_lab_timbi_madina
,,private,mamou,mamou,denominational hospital lab compassion,sectarian,biochemistry,antibiogramme,parasitology,serology,hematology,50.0,50.0,0,0,0,0,0,0,0,1,"NFS, VS, TC, TS, Hematocrit, Skin biopsy","biochemistry,antibiogramme,parasitology,serology,hematology",Guinea.mamou.mamou.denominational_hospital_lab_compassion
,,public,mamou,mamou,mamou independent battalion laboratory,ssa,,,,,,,,0,0,0,0,,,,,,"nan,nan,nan,nan,nan",Guinea.mamou.mamou.mamou_independent_battalion_laboratory
7.565662,-9.261331,public,n'zerekore,yomou,hp labs yomou,hp,withdrawals,coloration,csf,,,20.0,20.0,0,0,0,0,1,1,1,1,"GE (TDR, microscope), Tx Hb (hemoglobin meter Sally), GB, leukocyte formula, test Emmel, direct examination of stool (parasitological), microfilariae research, urinary sediment, LCR (direct examination, Gram and Ziehl) research BK, urine strips (Biochemistry), RPR, Widal, ASO, TDR HBV, HCV TDR TDR HIV, blood grouping (serum and erythrocyte not)","withdrawals,coloration,csf,None,None",Guinea.n'zerekore.yomou.hp_labs_yomou
7.7492410000000005,-8.822701,public,n'zerekore,n'zerekore,hr n'zerekore lab,hr,hematology,biochemistry,blood transfusion,bacteriology,molecular biology,,,0,0,0,1,1,1,1,1,GE; TDR forrmule leukocyte; stools; microfilaria research; urinary sediment; CRL BK; dipstick; RPR; Widal; aslo; SRV; transfusion hepatitis B and C GLYCAEMIA,"hematology,biochemistry,blood transfusion,bacteriology,molecular biology",Guinea.n'zerekore.n'zerekore.hr_n'zerekore_lab
7.756512,-8.809766999999999,public,n'zerekore,n'zerekore,csu lab dorota,cs,biochemistry,hematology,serology,bacteriology,parasitology,,,0,0,0,0,1,1,1,1,"Hemoglobin, saddles, albumin in urine, RPR, Widal, TBR, urinalysis, emmel of test, research microfilariae, TDR HIV, glucose (lack of strips) ","biochemistry,hematology,serology,bacteriology,parasitology",Guinea.n'zerekore.n'zerekore.csu_lab_dorota
8.374683000000001,-9.284422,public,n'zerekore,macenta,cs lab seredou,cs,hematology,parasitology,biosecurity,lab management,serology,5.0,10.0,0,0,0,0,1,1,0,1,stools; TDR malaria; HIV; Hb; albumin; TB,"hematology,parasitology,biosecurity,lab management,serology",Guinea.n'zerekore.macenta.cs_lab_seredou
8.504435,-10.334097,public,n'zerekore,gueckedou,laboratory cs nongoa,cs,biochemistry,hematology,parasitology,immunology,virology,20.0,30.0,0,0,0,0,1,1,1,1,TDR malaria; GE; Albumin; Hb; Widal; RPR; stools; TDR HIV,"biochemistry,hematology,parasitology,immunology,virology",Guinea.n'zerekore.gueckedou.laboratory_cs_nongoa
8.536802,-9.464948,,n'zerekore,macenta,laboratory medical center philafricaine mission,hospital,blood transfusion,biochemistry,hematology,antibiogramme,immunology,30.0,30.0,0,0,0,0,0,1,1,0,"Hb; NFS; VS; YOU; Tc Ts; blood grouping; Uric acid; aminotransferase; albumin; amylase; bilirubin; creatinine; CRP, LDH, alkaline phosphatase, total protein, triglycerides, urea; Aslo; Glucose; urinary strip; research BK; Meadow; HIV, syphilis; spermogram; rivalta; CD4; pregnancy test","blood transfusion,biochemistry,hematology,antibiogramme,immunology",Guinea.n'zerekore.macenta.laboratory_medical_center_philafricaine_mission
8.687842,-8.647247,public,n'zerekore,beyla,laboratory cs diakolidou,cs,biochemistry,serology,immunology,bacteriology,parasitology,10.0,10.0,0,0,0,0,1,1,1,1,stools; urinalysis; Albumin; glycosuria; RPR; Widal; HIV; GE; TDR,"biochemistry,serology,immunology,bacteriology,parasitology",Guinea.n'zerekore.beyla.laboratory_cs_diakolidou
8.689312,-8.645897999999999,public,n'zerekore,beyla,hp labs beyla,hp,biochemistry,bacteriology,hematology,serology,immunology,15.0,20.0,0,0,0,0,1,1,1,0,"Hb; GE; TDR malaria; stools; urine cytology; Widal; RPR; TDR HIV, HBsAg; HBcAg; blood grouping; Transaminase; uric acid, creatinine, urea; BK","biochemistry,bacteriology,hematology,serology,immunology",Guinea.n'zerekore.beyla.hp_labs_beyla
,,public,n'zerekore,gueckedou,hp labs gueckedou,hp,quality assurance,molecular biology,immunology,serology,biochemistry,12.0,20.0,0,0,0,0,1,1,1,0,"THb, TDR Palu, GE, NFS, VS, CD4 (the MSF time), Widal, Hepatitis B and C, syphilis, HIV, ASO, TE, TS, TC, glucose, Crï¿½atinini, Transaminases, Urea, Billuribine, Triglyceride, cholesterol, alkaline phosphatase","quality assurance,molecular biology,immunology,serology,biochemistry",Guinea.n'zerekore.gueckedou.hp_labs_gueckedou
,,public,n'zerekore,macenta,hp macenta lab,hp,hematology,biochemistry,bacteriology,sample collection,sero-immunology,30.0,40.0,0,0,0,0,1,1,1,0,"Saddles, Search microfilaria, parasitology urine, THb, VS, NFS, TS, TC, TE, glucose, chemistry urine, RPR / TPHA, Blood Grouping / Factor rhesus HIV Widal, urinalysis, CSF, Semen analysis, TDR, GE","hematology,biochemistry,bacteriology,sample collection,sero-immunology",Guinea.n'zerekore.macenta.hp_macenta_lab
,,public,n'zerekore,gueckedou,csu lab mangala,cs,bacteriology,hematology,serology,biochemistry,,10.0,10.0,0,0,0,0,1,0,0,1,"THb, TDR Palu, TB, urine, albumin, Deposit, Saddles","bacteriology,hematology,serology,biochemistry,nan",Guinea.n'zerekore.gueckedou.csu_lab_mangala
,,public,n'zerekore,macenta,cs lab patrice,cs,bacteriology,hematology,serology,biochemistry,parasitology,4.0,9.0,0,0,0,0,1,0,1,1,"Widal, TDR Palu, Seats, urinalysis, pregnancy test, THb, RPR","bacteriology,hematology,serology,biochemistry,parasitology",Guinea.n'zerekore.macenta.cs_lab_patrice
,,public,n'zerekore,beyla,sinko cmc labo,cmc,parasitology,hematology,serology,bacteriology,biochemistry,,,,,,,,,,,,"parasitology,hematology,serology,bacteriology,biochemistry",Guinea.n'zerekore.beyla.sinko_cmc_labo
,,public,n'zerekore,boola,cs lab boola,cs,biochemistry,hematology,parasitology,serology,,10.0,15.0,0,0,0,0,1,0,0,1,"THb, Saddles, Albumin, TDR Palu","biochemistry,hematology,parasitology,serology,nan",Guinea.n'zerekore.boola.cs_lab_boola
,,public,n'zerekore,kissidougou,,ssa,,,,,,,,,,,,,,,,,"nan,nan,nan,nan,nan",
,,public,n'zerekore,diecke,,ssa,,,,,,,,,,,,,,,,,"nan,nan,nan,nan,nan",
,,public,n'zerekore,n'zerekore,,ssa,biochemistry,hematology,bacteriology,parasitology,biosecurity,0.0,3.0,0,0,0,0,,,,,,"biochemistry,hematology,bacteriology,parasitology,biosecurity",
,,public,n'zerekore,gueckedou,n / a,ssa,,,,,,,,,,,,,,,,,"nan,nan,nan,nan,nan",Guinea.n'zerekore.gueckedou.n_/_a
